[{"OBJECT_NAME":"STARLINK-5249","OBJECT_ID":"2022-141BA","EPOCH":"2026-03-09T02:22:07.998816","MEAN_MOTION":15.08848113,"ECCENTRICITY":0.00012661,"INCLINATION":53.2186,"RA_OF_ASC_NODE":356.4136,"ARG_OF_PERICENTER":73.8418,"MEAN_ANOMALY":286.2713,"EPHEMERIS_TYPE":0,"CLASSIFICATION_TYPE":"U","NORAD_CAT_ID":54205,"ELEMENT_SET_NO":999,"REV_AT_EPOCH":18591,"BSTAR":0.00013445129,"MEAN_MOTION_DOT":1.853e-5,"MEAN_MOTION_DDOT":0},{"OBJECT_NAME":"CZ-4C R\/B","OBJECT_ID":"2022-106B","EPOCH":"2026-03-09T16:53:51.363744","MEAN_MOTION":15.02433181,"ECCENTRICITY":0.01103472,"INCLINATION":98.0511,"RA_OF_ASC_NODE":147.9459,"ARG_OF_PERICENTER":124.4586,"MEAN_ANOMALY":236.7124,"EPHEMERIS_TYPE":0,"CLASSIFICATION_TYPE":"U","NORAD_CAT_ID":53699,"ELEMENT_SET_NO":999,"REV_AT_EPOCH":19198,"BSTAR":0.00037068081,"MEAN_MOTION_DOT":5.536e-5,"MEAN_MOTION_DDOT":0}]
